IRIDIUM 112             
1 41925U 17003J   23237.28049040  .00000336  00000+0  11281-3 0  9993
2 41925  86.4031 157.4909 0002022  86.0040 274.1386 14.34217557346085
IRIDIUM 111             
1 41926U 17003K   23237.33757515  .00000354  00000+0  11929-3 0  9992
2 41926  86.4031 157.5151 0002425  87.9619 272.1854 14.34219199346076
IRIDIUM 113             
1 42803U 17039A   23237.52684192  .00000323  00000+0  10810-3 0  9991
2 42803  86.3956  31.1686 0003446 110.1509 250.0058 14.34226800324037
IRIDIUM 123             
1 42804U 17039B   23237.56831778 -.00000018  00000+0 -13402-4 0  9994
2 42804  86.3925  62.6732 0001914 100.7078 259.4334 14.34215845322809
IRIDIUM 120             
1 42805U 17039C   23237.52050640  .00000373  00000+0  12616-3 0  9999
2 42805  86.3970  31.0892 0002243  92.4318 267.7135 14.34218627324025
IRIDIUM 115             
1 42806U 17039D   23237.47075961  .00000496  00000+0  14138-3 0  9994
2 42806  86.4507  31.0929 0002429  98.0825 262.0652 14.43288456326172
IRIDIUM 118             
1 42807U 17039E   23237.60003669  .00000025  00000+0  17599-5 0  9990
2 42807  86.3925  62.6621 0001955  87.9706 272.1714 14.34215258322800
IRIDIUM 117             
1 42808U 17039F   23237.54928553  .00000112  00000+0  32993-4 0  9993
2 42808  86.3923  62.6504 0002165  91.6603 268.4841 14.34217963322827
